[
    {
        "Altitude(m)": 611965.2032790809,
        "Argument of Periapsis(deg)": 0.0,
        "Eccentricity": 0.0,
        "Inclination(deg)": 60.0,
        "Latitude(deg)": 59.14021589388926,
        "Longitude(deg)": -176.03002088809066,
        "Mean Anomaly(deg)": 81.8182,
        "RAAN(deg)": 210.0,
        "Satellite Name": "Test1 929",
        "Satellite Number": 929,
        "Semi-Major Axis(m)": 6980739.136638005,
        "Time(s)": 0
    },
    {
        "Altitude(m)": 611995.8281034295,
        "Argument of Periapsis(deg)": 0.00010418945913296404,
        "Eccentricity": 0.0,
        "Inclination(deg)": 60.0,
        "Latitude(deg)": 59.283313955995276,
        "Longitude(deg)": -174.89665601976253,
        "Mean Anomaly(deg)": 82.43830614546181,
        "RAAN(deg)": 209.99957995086027,
        "Satellite Name": "Test1 929",
        "Satellite Number": 929,
        "Semi-Major Axis(m)": 6980739.136638005,
        "Time(s)": 10
    },
    {
        "Altitude(m)": 612024.1120388937,
        "Argument of Periapsis(deg)": 0.0002083789182659281,
        "Eccentricity": 0.0,
        "Inclination(deg)": 60.0,
        "Latitude(deg)": 59.41572993333103,
        "Longitude(deg)": -173.753767728789,
        "Mean Anomaly(deg)": 83.05841229092364,
        "RAAN(deg)": 209.99915990172056,
        "Satellite Name": "Test1 929",
        "Satellite Number": 929,
        "Semi-Major Axis(m)": 6980739.136638005,
        "Time(s)": 20
    },
    {
        "Altitude(m)": 612050.0388669411,
        "Argument of Periapsis(deg)": 0.00031256837739889213,
        "Eccentricity": 0.0,
        "Inclination(deg)": 60.0,
        "Latitude(deg)": 59.53732440265443,
        "Longitude(deg)": -172.6019840299417,
        "Mean Anomaly(deg)": 83.67851843638549,
        "RAAN(deg)": 209.99873985258077,
        "Satellite Name": "Test1 929",
        "Satellite Number": 929,
        "Semi-Major Axis(m)": 6980739.136638005,
        "Time(s)": 30
    },
    {
        "Altitude(m)": 612073.5937292818,
        "Argument of Periapsis(deg)": 0.0004167578365318562,
        "Eccentricity": 0.0,
        "Inclination(deg)": 60.0,
        "Latitude(deg)": 59.64796719714628,
        "Longitude(deg)": -171.4419685532449,
        "Mean Anomaly(deg)": 84.29862458184732,
        "RAAN(deg)": 209.99831980344106,
        "Satellite Name": "Test1 929",
        "Satellite Number": 929,
        "Semi-Major Axis(m)": 6980739.136638005,
        "Time(s)": 40
    },
    {
        "Altitude(m)": 612094.7631348927,
        "Argument of Periapsis(deg)": 0.0005209472956648203,
        "Eccentricity": 0.0,
        "Inclination(deg)": 60.0,
        "Latitude(deg)": 59.74753805954883,
        "Longitude(deg)": -170.27441968496876,
        "Mean Anomaly(deg)": 84.91873072730917,
        "RAAN(deg)": 209.9978997543013,
        "Satellite Name": "Test1 929",
        "Satellite Number": 929,
        "Semi-Major Axis(m)": 6980739.136638005,
        "Time(s)": 50
    },
    {
        "Altitude(m)": 612113.5349663591,
        "Argument of Periapsis(deg)": 0.0006251367547977843,
        "Eccentricity": 0.0,
        "Inclination(deg)": 60.0,
        "Latitude(deg)": 59.835927261736764,
        "Longitude(deg)": -169.10006786282668,
        "Mean Anomaly(deg)": 85.538836872771,
        "RAAN(deg)": 209.99747970516154,
        "Satellite Name": "Test1 929",
        "Satellite Number": 929,
        "Semi-Major Axis(m)": 6980739.136638005,
        "Time(s)": 60
    },
    {
        "Altitude(m)": 612129.8984855978,
        "Argument of Periapsis(deg)": 0.0007293262139307483,
        "Eccentricity": 0.0,
        "Inclination(deg)": 60.0,
        "Latitude(deg)": 59.913036183659855,
        "Longitude(deg)": -167.919672548805,
        "Mean Anomaly(deg)": 86.15894301823285,
        "RAAN(deg)": 209.9970596560218,
        "Satellite Name": "Test1 929",
        "Satellite Number": 929,
        "Semi-Major Axis(m)": 6980739.136638005,
        "Time(s)": 70
    },
    {
        "Altitude(m)": 612143.8443388994,
        "Argument of Periapsis(deg)": 0.0008335156730637124,
        "Eccentricity": 0.0,
        "Inclination(deg)": 60.0,
        "Latitude(deg)": 59.978777844834745,
        "Longitude(deg)": -166.73402040865162,
        "Mean Anomaly(deg)": 86.77904916369468,
        "RAAN(deg)": 209.9966396068821,
        "Satellite Name": "Test1 929",
        "Satellite Number": 929,
        "Semi-Major Axis(m)": 6980739.136638005,
        "Time(s)": 80
    },
    {
        "Altitude(m)": 612155.3645613599,
        "Argument of Periapsis(deg)": 0.0009377051321966765,
        "Eccentricity": 0.0,
        "Inclination(deg)": 60.0,
        "Latitude(deg)": 60.03307738191558,
        "Longitude(deg)": -165.5439216941045,
        "Mean Anomaly(deg)": 87.39915530915648,
        "RAAN(deg)": 209.99621955774234,
        "Satellite Name": "Test1 929",
        "Satellite Number": 929,
        "Semi-Major Axis(m)": 6980739.136638005,
        "Time(s)": 90
    },
    {
        "Altitude(m)": 612164.4525806075,
        "Argument of Periapsis(deg)": 0.0010418945913296407,
        "Eccentricity": 0.0,
        "Inclination(deg)": 60.0,
        "Latitude(deg)": 60.075872466377575,
        "Longitude(deg)": -164.35020636803318,
        "Mean Anomaly(deg)": 88.0192614546183,
        "RAAN(deg)": 209.99579950860257,
        "Satellite Name": "Test1 929",
        "Satellite Number": 929,
        "Semi-Major Axis(m)": 6980739.136638005,
        "Time(s)": 100
    },
    {
        "Altitude(m)": 612171.1032199047,
        "Argument of Periapsis(deg)": 0.0011460840504626045,
        "Eccentricity": 0.0,
        "Inclination(deg)": 60.0,
        "Latitude(deg)": 60.107113656974796,
        "Longitude(deg)": -163.15372151777362,
        "Mean Anomaly(deg)": 88.6393676000801,
        "RAAN(deg)": 209.99537945946284,
        "Satellite Name": "Test1 929",
        "Satellite Number": 929,
        "Semi-Major Axis(m)": 6980739.136638005,
        "Time(s)": 110
    },
    {
        "Altitude(m)": 612175.3127005878,
        "Argument of Periapsis(deg)": 0.0012502735095955685,
        "Eccentricity": 0.0,
        "Inclination(deg)": 60.0,
        "Latitude(deg)": 60.12676468237151,
        "Longitude(deg)": -161.95532706789695,
        "Mean Anomaly(deg)": 89.25947374554194,
        "RAAN(deg)": 209.99495941032313,
        "Satellite Name": "Test1 929",
        "Satellite Number": 929,
        "Semi-Major Axis(m)": 6980739.136638005,
        "Time(s)": 120
    },
    {
        "Altitude(m)": 612177.078643836,
        "Argument of Periapsis(deg)": 0.0013544629687285324,
        "Eccentricity": 0.0,
        "Inclination(deg)": 60.0,
        "Latitude(deg)": 60.134802650209174,
        "Longitude(deg)": -160.7558913461872,
        "Mean Anomaly(deg)": 89.87957989100379,
        "RAAN(deg)": 209.99453936118337,
        "Satellite Name": "Test1 929",
        "Satellite Number": 929,
        "Semi-Major Axis(m)": 6980739.136638005,
        "Time(s)": 130
    },
    {
        "Altitude(m)": 612176.4000717959,
        "Argument of Periapsis(deg)": 0.0014586524278614966,
        "Eccentricity": 0.0,
        "Inclination(deg)": 60.0,
        "Latitude(deg)": 60.131218179811064,
        "Longitude(deg)": -159.55628805970525,
        "Mean Anomaly(deg)": 90.49968603646563,
        "RAAN(deg)": 209.9941193120436,
        "Satellite Name": "Test1 929",
        "Satellite Number": 929,
        "Semi-Major Axis(m)": 6980739.136638005,
        "Time(s)": 140
    },
    {
        "Altitude(m)": 612173.2774080342,
        "Argument of Periapsis(deg)": 0.0015628418869944607,
        "Eccentricity": 0.0,
        "Inclination(deg)": 60.0,
        "Latitude(deg)": 60.11601545672859,
        "Longitude(deg)": -158.3573917014064,
        "Mean Anomaly(deg)": 91.11979218192747,
        "RAAN(deg)": 209.99369926290387,
        "Satellite Name": "Test1 929",
        "Satellite Number": 929,
        "Semi-Major Axis(m)": 6980739.136638005,
        "Time(s)": 150
    },
    {
        "Altitude(m)": 612167.7124773295,
        "Argument of Periapsis(deg)": 0.0016670313461274247,
        "Eccentricity": 0.0,
        "Inclination(deg)": 60.0,
        "Latitude(deg)": 60.08921220839176,
        "Longitude(deg)": -157.16007294761712,
        "Mean Anomaly(deg)": 91.7398983273893,
        "RAAN(deg)": 209.99327921376417,
        "Satellite Name": "Test1 929",
        "Satellite Number": 929,
        "Semi-Major Axis(m)": 6980739.136638005,
        "Time(s)": 160
    },
    {
        "Altitude(m)": 612159.7085048234,
        "Argument of Periapsis(deg)": 0.0017712208052603888,
        "Eccentricity": 0.0,
        "Inclination(deg)": 60.0,
        "Latitude(deg)": 60.05083960119736,
        "Longitude(deg)": -155.96519560687221,
        "Mean Anomaly(deg)": 92.36000447285114,
        "RAAN(deg)": 209.9928591646244,
        "Satellite Name": "Test1 929",
        "Satellite Number": 929,
        "Semi-Major Axis(m)": 6980739.136638005,
        "Time(s)": 170
    },
    {
        "Altitude(m)": 612149.2701144898,
        "Argument of Periapsis(deg)": 0.001875410264393353,
        "Eccentricity": 0.0,
        "Inclination(deg)": 60.0,
        "Latitude(deg)": 60.000942060421295,
        "Longitude(deg)": -154.7736121411681,
        "Mean Anomaly(deg)": 92.98011061831299,
        "RAAN(deg)": 209.99243911548464,
        "Satellite Name": "Test1 929",
        "Satellite Number": 929,
        "Semi-Major Axis(m)": 6980739.136638005,
        "Time(s)": 180
    },
    {
        "Altitude(m)": 612136.4033269493,
        "Argument of Periapsis(deg)": 0.0019795997235263173,
        "Eccentricity": 0.0,
        "Inclination(deg)": 60.0,
        "Latitude(deg)": 59.939577015377935,
        "Longitude(deg)": -153.58615931746604,
        "Mean Anomaly(deg)": 93.60021676377477,
        "RAAN(deg)": 209.9920190663449,
        "Satellite Name": "Test1 929",
        "Satellite Number": 929,
        "Semi-Major Axis(m)": 6980739.136638005,
        "Time(s)": 190
    }
]